[{"OBJECT_NAME":"LEMUR-2-ANDIS","OBJECT_ID":"2017-042P","EPOCH":"2026-03-09T13:25:33.116448","MEAN_MOTION":15.30557934,"ECCENTRICITY":0.0009101,"INCLINATION":97.3659,"RA_OF_ASC_NODE":249.795,"ARG_OF_PERICENTER":4.3248,"MEAN_ANOMALY":355.807,"EPHEMERIS_TYPE":0,"CLASSIFICATION_TYPE":"U","NORAD_CAT_ID":42838,"ELEMENT_SET_NO":999,"REV_AT_EPOCH":47319,"BSTAR":0.00079875,"MEAN_MOTION_DOT":0.00023598,"MEAN_MOTION_DDOT":0},{"OBJECT_NAME":"STARLINK-33878","OBJECT_ID":"2025-093AC","EPOCH":"2026-03-09T09:13:39.594720","MEAN_MOTION":15.27618604,"ECCENTRICITY":0.00020476,"INCLINATION":43.001,"RA_OF_ASC_NODE":79.7369,"ARG_OF_PERICENTER":248.751,"MEAN_ANOMALY":111.3123,"EPHEMERIS_TYPE":0,"CLASSIFICATION_TYPE":"U","NORAD_CAT_ID":63862,"ELEMENT_SET_NO":999,"REV_AT_EPOCH":4791,"BSTAR":0.001294161,"MEAN_MOTION_DOT":0.00035565,"MEAN_MOTION_DDOT":0}]
