LEMUR-2-ANDIS           
1 42838U 17042P   26068.55941107  .00023598  00000+0  79875-3 0  9998
2 42838  97.3659 249.7950 0009101   4.3248 355.8070 15.30557934473198
STARLINK-33878          
1 63862U 25093AC  26068.38448605  .00035565  00000+0  12942-2 0  9997
2 63862  43.0010  79.7369 0002047 248.7510 111.3123 15.27618604 47919
